IRIDIUM 106             
1 41917U 17003A   25054.13459503  .00000116  00000+0  34359-4 0  9994
2 41917  86.3943 288.7102 0002355  76.1774 283.9683 14.34213458424545
IRIDIUM 103             
1 41918U 17003B   25054.19169372  .00000257  00000+0  84880-4 0  9993
2 41918  86.3941 288.5872 0002644  92.6604 267.4894 14.34217708424589
IRIDIUM 109             
1 41919U 17003C   25054.19803459  .00000096  00000+0  27129-4 0  9999
2 41919  86.3941 288.6362 0002039  93.6043 266.5386 14.34218159424566
IRIDIUM 102             
1 41920U 17003D   25054.16632253  .00000411  00000+0  13975-3 0  9994
2 41920  86.3939 288.5832 0001981  84.4315 275.7106 14.34217174424626
IRIDIUM 105             
1 41921U 17003E   25054.83474194  .00000167  00000+0  52549-4 0  9996
2 41921  86.3919 256.7140 0002175  88.6893 271.4552 14.34217508426572
IRIDIUM 104             
1 41922U 17003F   25054.17900677  .00000017  00000+0 -98327-6 0  9995
2 41922  86.3941 288.6130 0001964 100.5121 259.6296 14.34217667424616
IRIDIUM 114             
1 41923U 17003G   25054.39465643  .00000061  00000+0  14865-4 0  9990
2 41923  86.3941 288.5080 0002297  89.2521 270.8938 14.34217518424643
IRIDIUM 108             
1 41924U 17003H   25054.49271238  .00000084  00000+0  22885-4 0  9993
2 41924  86.3913 256.7657 0002132  81.9176 278.2261 14.34218211426513
